ONEWEB-0136             
1 47282U 20100AA  25150.48097605 -.00000308  00000+0 -89259-3 0  9996
2 47282  87.8891  66.7660 0002126  91.7792 268.3579 13.12443840214460
ONEWEB-0137             
1 47283U 20100AB  25150.51503457  .00000355  00000+0  95199-3 0  9998
2 47283  87.8884  66.7680 0002146  76.5100 283.6267 13.12445366214370
ONEWEB-0138             
1 47284U 20100AC  25150.26524570 -.00000195  00000+0 -57649-3 0  9992
2 47284  87.8884  66.8294 0002021  82.1377 277.9981 13.12444565214429
ONEWEB-0139             
1 47285U 20100AD  25150.45680158  .00000630  00000+0  17147-2 0  9999
2 47285  87.8891  66.7811 0001942  78.8128 281.3219 13.12441540214523
ONEWEB-0140             
1 47286U 20100AE  25150.48745568 -.00000405  00000+0 -11600-2 0  9990
2 47286  87.8884  66.7619 0001978  82.9971 277.1382 13.12442072214494
ONEWEB-0141             
1 47287U 20100AF  25150.30403007  .00000419  00000+0  11291-2 0  9990
2 47287  87.8884  66.8157 0002255  73.0142 287.1234 13.12444692214456
ONEWEB-0142             
1 47288U 20100AG  25150.52167674  .00000427  00000+0  11518-2 0  9993
2 47288  87.8905  66.7709 0002252  79.6088 280.5294 13.12442296214474
ONEWEB-0143             
1 47289U 20100AH  25150.45502459  .00000399  00000+0  10731-2 0  9994
2 47289  87.8887  66.7906 0001949  78.9084 281.2263 13.12443976214440
